ZACUBE-1 (TSHEPISOSAT)  
1 39417U 13066B   24199.15008568  .00008490  00000+0  87195-3 0  9991
2 39417  97.7343 154.4537 0051993  62.6722 297.9775 14.89607806576047
POPACS 1                
1 39268U 13055D   24198.78198364  .00064457  00000+0  10873-2 0  9998
2 39268  80.9806 117.2423 0397398 357.7793   2.1638 14.95209914564954
POPACS 2                
1 39269U 13055E   24198.44845184  .00013220  00000+0  30538-3 0  9994
2 39269  81.0006 207.5677 0546055 233.4528 121.5227 14.57868804559866
POPACS 3                
1 39270U 13055F   24198.14736448  .00011032  00000+0  29962-3 0  9993
2 39270  81.0075 259.5647 0624231  19.2726 343.0960 14.37961056537122
AEHF-3 (USA 246)        
1 39256U 13050A   24198.82144037  .00000148  00000+0  00000+0 0  9998
2 39256   3.5483  72.6854 0046677 178.1925 185.0236  1.00277921 38651
ASTRA 2E                
1 39285U 13056A   24198.85788132  .00000168  00000+0  00000+0 0  9991
2 39285   0.0640 333.0889 0002615 137.4336 161.9478  1.00269088 39400
FM-6                    
1 39360U 13058A   24199.22896450  .00000001  00000+0  00000+0 0  9998
2 39360   0.0397  74.8686 0000314 320.2624 226.6614  1.00269821 39321
RADUGA-1M 3             
1 39375U 13062A   24198.85918667  .00000168  00000+0  00000+0 0  9996
2 39375   4.1662  80.9230 0003855 245.4396 313.1179  1.00273617 39086
SKYSAT-A                
1 39418U 13066C   24198.73720131  .00004503  00000+0  31645-3 0  9992
2 39418  97.4845 258.1278 0024716 200.4595 159.5644 15.05359130582799
DUBAISAT-2              
1 39419U 13066D   24199.17259137  .00006102  00000+0  48505-3 0  9995
2 39419  97.4131 202.7632 0012359 248.3826 111.6083 15.00727062581024
HISAKI (SPRINT-A)       
1 39253U 13049A   24198.33205393  .00000137  00000+0  10015-3 0  9991
2 39253  29.7173 182.8644 0137048  95.4418 266.1803 13.55405159536266
CASSIOPE                
1 39265U 13055A   24198.89629652  .00025938  00000+0  53499-3 0  9999
2 39265  80.9528 162.6675 0492835 174.4468 186.2506 14.71356737562765
SHIJIAN-16 (SJ-16)      
1 39358U 13057A   24199.21504730  .00001474  00000+0  15933-3 0  9990
2 39358  74.9713 239.4183 0016322 127.1960 233.0719 14.88990169582084
FENGYUN 3C              
1 39260U 13052A   24199.26396736  .00000211  00000+0  12731-3 0  9998
2 39260  98.4290 197.2768 0009957 237.0447 122.9772 14.16231105559587
