[{"OBJECT_NAME":"HISAKI (SPRINT-A)","OBJECT_ID":"2013-049A","EPOCH":"2024-07-16T07:58:09.459552","MEAN_MOTION":13.55405159,"ECCENTRICITY":0.0137048,"INCLINATION":29.7173,"RA_OF_ASC_NODE":182.8644,"ARG_OF_PERICENTER":95.4418,"MEAN_ANOMALY":266.1803,"EPHEMERIS_TYPE":0,"CLASSIFICATION_TYPE":"U","NORAD_CAT_ID":39253,"ELEMENT_SET_NO":999,"REV_AT_EPOCH":53626,"BSTAR":0.00010015,"MEAN_MOTION_DOT":1.37e-6,"MEAN_MOTION_DDOT":0},{"OBJECT_NAME":"AEHF-3 (USA 246)","OBJECT_ID":"2013-050A","EPOCH":"2024-07-16T19:42:52.447968","MEAN_MOTION":1.00277921,"ECCENTRICITY":0.0046677,"INCLINATION":3.5483,"RA_OF_ASC_NODE":72.6854,"ARG_OF_PERICENTER":178.1925,"MEAN_ANOMALY":185.0236,"EPHEMERIS_TYPE":0,"CLASSIFICATION_TYPE":"U","NORAD_CAT_ID":39256,"ELEMENT_SET_NO":999,"REV_AT_EPOCH":3865,"BSTAR":0,"MEAN_MOTION_DOT":1.48e-6,"MEAN_MOTION_DDOT":0},{"OBJECT_NAME":"FENGYUN 3C","OBJECT_ID":"2013-052A","EPOCH":"2024-07-17T06:20:06.779904","MEAN_MOTION":14.16231105,"ECCENTRICITY":0.0009957,"INCLINATION":98.429,"RA_OF_ASC_NODE":197.2768,"ARG_OF_PERICENTER":237.0447,"MEAN_ANOMALY":122.9772,"EPHEMERIS_TYPE":0,"CLASSIFICATION_TYPE":"U","NORAD_CAT_ID":39260,"ELEMENT_SET_NO":999,"REV_AT_EPOCH":55958,"BSTAR":0.00012731,"MEAN_MOTION_DOT":2.11e-6,"MEAN_MOTION_DDOT":0},{"OBJECT_NAME":"CASSIOPE","OBJECT_ID":"2013-055A","EPOCH":"2024-07-16T21:30:40.019328","MEAN_MOTION":14.71356737,"ECCENTRICITY":0.0492835,"INCLINATION":80.9528,"RA_OF_ASC_NODE":162.6675,"ARG_OF_PERICENTER":174.4468,"MEAN_ANOMALY":186.2506,"EPHEMERIS_TYPE":0,"CLASSIFICATION_TYPE":"U","NORAD_CAT_ID":39265,"ELEMENT_SET_NO":999,"REV_AT_EPOCH":56276,"BSTAR":0.00053499,"MEAN_MOTION_DOT":0.00025938,"MEAN_MOTION_DDOT":0},{"OBJECT_NAME":"POPACS 1","OBJECT_ID":"2013-055D","EPOCH":"2024-07-16T18:46:03.386496","MEAN_MOTION":14.95209914,"ECCENTRICITY":0.0397398,"INCLINATION":80.9806,"RA_OF_ASC_NODE":117.2423,"ARG_OF_PERICENTER":357.7793,"MEAN_ANOMALY":2.1638,"EPHEMERIS_TYPE":0,"CLASSIFICATION_TYPE":"U","NORAD_CAT_ID":39268,"ELEMENT_SET_NO":999,"REV_AT_EPOCH":56495,"BSTAR":0.0010873,"MEAN_MOTION_DOT":0.00064457,"MEAN_MOTION_DDOT":0},{"OBJECT_NAME":"POPACS 2","OBJECT_ID":"2013-055E","EPOCH":"2024-07-16T10:45:46.238976","MEAN_MOTION":14.57868804,"ECCENTRICITY":0.0546055,"INCLINATION":81.0006,"RA_OF_ASC_NODE":207.5677,"ARG_OF_PERICENTER":233.4528,"MEAN_ANOMALY":121.5227,"EPHEMERIS_TYPE":0,"CLASSIFICATION_TYPE":"U","NORAD_CAT_ID":39269,"ELEMENT_SET_NO":999,"REV_AT_EPOCH":55986,"BSTAR":0.00030538,"MEAN_MOTION_DOT":0.0001322,"MEAN_MOTION_DDOT":0},{"OBJECT_NAME":"POPACS 3","OBJECT_ID":"2013-055F","EPOCH":"2024-07-16T03:32:12.291072","MEAN_MOTION":14.37961056,"ECCENTRICITY":0.0624231,"INCLINATION":81.0075,"RA_OF_ASC_NODE":259.5647,"ARG_OF_PERICENTER":19.2726,"MEAN_ANOMALY":343.096,"EPHEMERIS_TYPE":0,"CLASSIFICATION_TYPE":"U","NORAD_CAT_ID":39270,"ELEMENT_SET_NO":999,"REV_AT_EPOCH":53712,"BSTAR":0.00029962,"MEAN_MOTION_DOT":0.00011032,"MEAN_MOTION_DDOT":0},{"OBJECT_NAME":"ASTRA 2E","OBJECT_ID":"2013-056A","EPOCH":"2024-07-16T20:35:20.946048","MEAN_MOTION":1.00269088,"ECCENTRICITY":0.0002615,"INCLINATION":0.064,"RA_OF_ASC_NODE":333.0889,"ARG_OF_PERICENTER":137.4336,"MEAN_ANOMALY":161.9478,"EPHEMERIS_TYPE":0,"CLASSIFICATION_TYPE":"U","NORAD_CAT_ID":39285,"ELEMENT_SET_NO":999,"REV_AT_EPOCH":3940,"BSTAR":0,"MEAN_MOTION_DOT":1.68e-6,"MEAN_MOTION_DDOT":0},{"OBJECT_NAME":"SHIJIAN-16 (SJ-16)","OBJECT_ID":"2013-057A","EPOCH":"2024-07-17T05:09:40.086720","MEAN_MOTION":14.88990169,"ECCENTRICITY":0.0016322,"INCLINATION":74.9713,"RA_OF_ASC_NODE":239.4183,"ARG_OF_PERICENTER":127.196,"MEAN_ANOMALY":233.0719,"EPHEMERIS_TYPE":0,"CLASSIFICATION_TYPE":"U","NORAD_CAT_ID":39358,"ELEMENT_SET_NO":999,"REV_AT_EPOCH":58208,"BSTAR":0.00015933,"MEAN_MOTION_DOT":1.474e-5,"MEAN_MOTION_DDOT":0},{"OBJECT_NAME":"FM-6","OBJECT_ID":"2013-058A","EPOCH":"2024-07-17T05:29:42.532800","MEAN_MOTION":1.00269821,"ECCENTRICITY":3.14e-5,"INCLINATION":0.0397,"RA_OF_ASC_NODE":74.8686,"ARG_OF_PERICENTER":320.2624,"MEAN_ANOMALY":226.6614,"EPHEMERIS_TYPE":0,"CLASSIFICATION_TYPE":"U","NORAD_CAT_ID":39360,"ELEMENT_SET_NO":999,"REV_AT_EPOCH":3932,"BSTAR":0,"MEAN_MOTION_DOT":1.0e-8,"MEAN_MOTION_DDOT":0},{"OBJECT_NAME":"RADUGA-1M 3","OBJECT_ID":"2013-062A","EPOCH":"2024-07-16T20:37:13.728288","MEAN_MOTION":1.00273617,"ECCENTRICITY":0.0003855,"INCLINATION":4.1662,"RA_OF_ASC_NODE":80.923,"ARG_OF_PERICENTER":245.4396,"MEAN_ANOMALY":313.1179,"EPHEMERIS_TYPE":0,"CLASSIFICATION_TYPE":"U","NORAD_CAT_ID":39375,"ELEMENT_SET_NO":999,"REV_AT_EPOCH":3908,"BSTAR":0,"MEAN_MOTION_DOT":1.68e-6,"MEAN_MOTION_DDOT":0},{"OBJECT_NAME":"ZACUBE-1 (TSHEPISOSAT)","OBJECT_ID":"2013-066B","EPOCH":"2024-07-17T03:36:07.402752","MEAN_MOTION":14.89607806,"ECCENTRICITY":0.0051993,"INCLINATION":97.7343,"RA_OF_ASC_NODE":154.4537,"ARG_OF_PERICENTER":62.6722,"MEAN_ANOMALY":297.9775,"EPHEMERIS_TYPE":0,"CLASSIFICATION_TYPE":"U","NORAD_CAT_ID":39417,"ELEMENT_SET_NO":999,"REV_AT_EPOCH":57604,"BSTAR":0.00087195,"MEAN_MOTION_DOT":8.49e-5,"MEAN_MOTION_DDOT":0},{"OBJECT_NAME":"SKYSAT-A","OBJECT_ID":"2013-066C","EPOCH":"2024-07-16T17:41:34.193184","MEAN_MOTION":15.0535913,"ECCENTRICITY":0.0024716,"INCLINATION":97.4845,"RA_OF_ASC_NODE":258.1278,"ARG_OF_PERICENTER":200.4595,"MEAN_ANOMALY":159.5644,"EPHEMERIS_TYPE":0,"CLASSIFICATION_TYPE":"U","NORAD_CAT_ID":39418,"ELEMENT_SET_NO":999,"REV_AT_EPOCH":58279,"BSTAR":0.00031645,"MEAN_MOTION_DOT":4.503e-5,"MEAN_MOTION_DDOT":0},{"OBJECT_NAME":"DUBAISAT-2","OBJECT_ID":"2013-066D","EPOCH":"2024-07-17T04:08:31.894368","MEAN_MOTION":15.00727062,"ECCENTRICITY":0.0012359,"INCLINATION":97.4131,"RA_OF_ASC_NODE":202.7632,"ARG_OF_PERICENTER":248.3826,"MEAN_ANOMALY":111.6083,"EPHEMERIS_TYPE":0,"CLASSIFICATION_TYPE":"U","NORAD_CAT_ID":39419,"ELEMENT_SET_NO":999,"REV_AT_EPOCH":58102,"BSTAR":0.00048505,"MEAN_MOTION_DOT":6.102e-5,"MEAN_MOTION_DDOT":0}]
